OSCAR 7 (AO-7)          
1 07530U 74089B   26032.96414976 -.00000037  00000+0  57465-4 0  9993
2 07530 101.9969  44.7712 0012306  30.4133  25.1503 12.53695581343576
PHASE 3B (AO-10)        
1 14129U 83058B   26032.88008791 -.00000076  00000+0  00000+0 0  9997
2 14129  25.9660 242.3970 6057197  78.0086 340.2671  2.05871360292703
UOSAT 2 (UO-11)         
1 14781U 84021B   26032.89020193  .00001271  00000+0  13634-3 0  9991
2 14781  97.7883   0.1523 0006044 273.1526  86.9000 14.90364186236978
LUSAT (LO-19)           
1 20442U 90005G   26032.96811511  .00000158  00000+0  73263-4 0  9999
2 20442  98.8949  50.9828 0010667 240.0997 119.9128 14.34071852883010
EYESAT A (AO-27)        
1 22825U 93061C   26032.76528600  .00000129  00000+0  66306-4 0  9991
2 22825  98.7059 100.1342 0009207 133.3291 226.8661 14.30900041687633
ITAMSAT (IO-26)         
1 22826U 93061D   26032.71496654  .00000161  00000+0  77593-4 0  9996
2 22826  98.7010  99.9878 0009914 118.8127 241.4053 14.31323087687932
RADIO ROSTO (RS15)      
1 23439U 94085A   26032.95382660 -.00000040  00000+0  56062-4 0  9996
2 23439  64.8148 161.9253 0151410  28.8353 332.0836 11.27583666280653
JAS-2 (FO-29)           
1 24278U 96046B   26032.86326506  .00000005  00000+0  37620-4 0  9993
2 24278  98.5428 260.1211 0350909  87.5419 276.5840 13.53266268454865
TECHSAT 1B (GO-32)      
1 25397U 98043D   26032.91545103  .00000085  00000+0  56799-4 0  9993
2 25397  98.9977  22.3244 0000502 197.5452 162.5709 14.24395195432073
ISS (ZARYA)             
1 25544U 98067A   26032.88782213  .00007269  00000+0  14305-3 0  9991
2 25544  51.6312 249.3384 0011111  54.7712 305.4314 15.48328191550781
PCSAT (NO-44)           
1 26931U 01043C   26032.93585602  .00000141  00000+0  83561-4 0  9992
2 26931  67.0488 234.0791 0007067 266.6731  93.3562 14.31890450271084
SAUDISAT 1C (SO-50)     
1 27607U 02058C   26032.87012522  .00001532  00000+0  19930-3 0  9992
2 27607  64.5522 187.5376 0074187 287.1758  72.1235 14.82631536244391
CUTE-1 (CO-55)          
1 27844U 03031E   26032.94593478  .00000371  00000+0  17973-3 0  9994
2 27844  98.6771  43.1922 0008966 213.0400 147.0219 14.24233978172428
CUBESAT XI-IV (CO-57)   
1 27848U 03031J   26032.93744987  .00000310  00000+0  15540-3 0  9991
2 27848  98.6800  43.0050 0008619 232.6069 127.4325 14.23533904172138
MOZHAETS 4 (RS22)       
1 27939U 03042A   26033.01289397  .00001432  00000+0  23035-3 0  9997
2 27939  98.3389 213.5907 0011060 343.1503 173.7454 14.73145734195641
CUBESAT XI-V            
1 28895U 05043F   26032.96642165  .00001738  00000+0  28391-3 0  9990
2 28895  98.2769 185.9339 0013152 274.7638  85.2066 14.72150132 81857
