[{"OBJECT_NAME":"OSCAR 7 (AO-7)","OBJECT_ID":"1974-089B","EPOCH":"2026-02-01T23:08:22.539264","MEAN_MOTION":12.53695581,"ECCENTRICITY":0.00123064,"INCLINATION":101.9969,"RA_OF_ASC_NODE":44.7712,"ARG_OF_PERICENTER":30.4133,"MEAN_ANOMALY":25.1503,"EPHEMERIS_TYPE":0,"CLASSIFICATION_TYPE":"U","NORAD_CAT_ID":7530,"ELEMENT_SET_NO":999,"REV_AT_EPOCH":34357,"BSTAR":5.7464931e-5,"MEAN_MOTION_DOT":-3.7e-7,"MEAN_MOTION_DDOT":0},{"OBJECT_NAME":"PHASE 3B (AO-10)","OBJECT_ID":"1983-058B","EPOCH":"2026-02-01T21:07:19.595424","MEAN_MOTION":2.0587136,"ECCENTRICITY":0.60571976,"INCLINATION":25.966,"RA_OF_ASC_NODE":242.397,"ARG_OF_PERICENTER":78.0086,"MEAN_ANOMALY":340.2671,"EPHEMERIS_TYPE":0,"CLASSIFICATION_TYPE":"U","NORAD_CAT_ID":14129,"ELEMENT_SET_NO":999,"REV_AT_EPOCH":29270,"BSTAR":0,"MEAN_MOTION_DOT":-7.6e-7,"MEAN_MOTION_DDOT":0},{"OBJECT_NAME":"UOSAT 2 (UO-11)","OBJECT_ID":"1984-021B","EPOCH":"2026-02-01T21:21:53.446752","MEAN_MOTION":14.90364186,"ECCENTRICITY":0.00060442,"INCLINATION":97.7883,"RA_OF_ASC_NODE":0.1523,"ARG_OF_PERICENTER":273.1526,"MEAN_ANOMALY":86.9,"EPHEMERIS_TYPE":0,"CLASSIFICATION_TYPE":"U","NORAD_CAT_ID":14781,"ELEMENT_SET_NO":999,"REV_AT_EPOCH":23697,"BSTAR":0.00013633532,"MEAN_MOTION_DOT":1.271e-5,"MEAN_MOTION_DDOT":0},{"OBJECT_NAME":"LUSAT (LO-19)","OBJECT_ID":"1990-005G","EPOCH":"2026-02-01T23:14:05.145504","MEAN_MOTION":14.34071852,"ECCENTRICITY":0.00106673,"INCLINATION":98.8949,"RA_OF_ASC_NODE":50.9828,"ARG_OF_PERICENTER":240.0997,"MEAN_ANOMALY":119.9128,"EPHEMERIS_TYPE":0,"CLASSIFICATION_TYPE":"U","NORAD_CAT_ID":20442,"ELEMENT_SET_NO":999,"REV_AT_EPOCH":88301,"BSTAR":7.3262627e-5,"MEAN_MOTION_DOT":1.58e-6,"MEAN_MOTION_DDOT":0},{"OBJECT_NAME":"EYESAT A (AO-27)","OBJECT_ID":"1993-061C","EPOCH":"2026-02-01T18:22:00.710400","MEAN_MOTION":14.30900041,"ECCENTRICITY":0.00092075,"INCLINATION":98.7059,"RA_OF_ASC_NODE":100.1342,"ARG_OF_PERICENTER":133.3291,"MEAN_ANOMALY":226.8661,"EPHEMERIS_TYPE":0,"CLASSIFICATION_TYPE":"U","NORAD_CAT_ID":22825,"ELEMENT_SET_NO":999,"REV_AT_EPOCH":68763,"BSTAR":6.6306318e-5,"MEAN_MOTION_DOT":1.29e-6,"MEAN_MOTION_DDOT":0},{"OBJECT_NAME":"ITAMSAT (IO-26)","OBJECT_ID":"1993-061D","EPOCH":"2026-02-01T17:09:33.109056","MEAN_MOTION":14.31323087,"ECCENTRICITY":0.00099146,"INCLINATION":98.701,"RA_OF_ASC_NODE":99.9878,"ARG_OF_PERICENTER":118.8127,"MEAN_ANOMALY":241.4053,"EPHEMERIS_TYPE":0,"CLASSIFICATION_TYPE":"U","NORAD_CAT_ID":22826,"ELEMENT_SET_NO":999,"REV_AT_EPOCH":68793,"BSTAR":7.7593312e-5,"MEAN_MOTION_DOT":1.61e-6,"MEAN_MOTION_DDOT":0},{"OBJECT_NAME":"RADIO ROSTO (RS15)","OBJECT_ID":"1994-085A","EPOCH":"2026-02-01T22:53:30.618240","MEAN_MOTION":11.27583666,"ECCENTRICITY":0.01514101,"INCLINATION":64.8148,"RA_OF_ASC_NODE":161.9253,"ARG_OF_PERICENTER":28.8353,"MEAN_ANOMALY":332.0836,"EPHEMERIS_TYPE":0,"CLASSIFICATION_TYPE":"U","NORAD_CAT_ID":23439,"ELEMENT_SET_NO":999,"REV_AT_EPOCH":28065,"BSTAR":5.6061766e-5,"MEAN_MOTION_DOT":-4.0e-7,"MEAN_MOTION_DDOT":0},{"OBJECT_NAME":"JAS-2 (FO-29)","OBJECT_ID":"1996-046B","EPOCH":"2026-02-01T20:43:06.101184","MEAN_MOTION":13.53266268,"ECCENTRICITY":0.03509094,"INCLINATION":98.5428,"RA_OF_ASC_NODE":260.1211,"ARG_OF_PERICENTER":87.5419,"MEAN_ANOMALY":276.584,"EPHEMERIS_TYPE":0,"CLASSIFICATION_TYPE":"U","NORAD_CAT_ID":24278,"ELEMENT_SET_NO":999,"REV_AT_EPOCH":45486,"BSTAR":3.7619508e-5,"MEAN_MOTION_DOT":5.0e-8,"MEAN_MOTION_DDOT":0},{"OBJECT_NAME":"TECHSAT 1B (GO-32)","OBJECT_ID":"1998-043D","EPOCH":"2026-02-01T21:58:14.968992","MEAN_MOTION":14.24395195,"ECCENTRICITY":5.021e-5,"INCLINATION":98.9977,"RA_OF_ASC_NODE":22.3244,"ARG_OF_PERICENTER":197.5452,"MEAN_ANOMALY":162.5709,"EPHEMERIS_TYPE":0,"CLASSIFICATION_TYPE":"U","NORAD_CAT_ID":25397,"ELEMENT_SET_NO":999,"REV_AT_EPOCH":43207,"BSTAR":5.6799353e-5,"MEAN_MOTION_DOT":8.5e-7,"MEAN_MOTION_DDOT":0},{"OBJECT_NAME":"ISS (ZARYA)","OBJECT_ID":"1998-067A","EPOCH":"2026-02-01T21:18:27.832032","MEAN_MOTION":15.48328191,"ECCENTRICITY":0.00111115,"INCLINATION":51.6312,"RA_OF_ASC_NODE":249.3384,"ARG_OF_PERICENTER":54.7712,"MEAN_ANOMALY":305.4314,"EPHEMERIS_TYPE":0,"CLASSIFICATION_TYPE":"U","NORAD_CAT_ID":25544,"ELEMENT_SET_NO":999,"REV_AT_EPOCH":55078,"BSTAR":0.00014305413,"MEAN_MOTION_DOT":7.269e-5,"MEAN_MOTION_DDOT":0},{"OBJECT_NAME":"PCSAT (NO-44)","OBJECT_ID":"2001-043C","EPOCH":"2026-02-01T22:27:37.960128","MEAN_MOTION":14.3189045,"ECCENTRICITY":0.00070677,"INCLINATION":67.0488,"RA_OF_ASC_NODE":234.0791,"ARG_OF_PERICENTER":266.6731,"MEAN_ANOMALY":93.3562,"EPHEMERIS_TYPE":0,"CLASSIFICATION_TYPE":"U","NORAD_CAT_ID":26931,"ELEMENT_SET_NO":999,"REV_AT_EPOCH":27108,"BSTAR":8.356061e-5,"MEAN_MOTION_DOT":1.41e-6,"MEAN_MOTION_DDOT":0},{"OBJECT_NAME":"SAUDISAT 1C (SO-50)","OBJECT_ID":"2002-058C","EPOCH":"2026-02-01T20:52:58.819008","MEAN_MOTION":14.82631536,"ECCENTRICITY":0.00741879,"INCLINATION":64.5522,"RA_OF_ASC_NODE":187.5376,"ARG_OF_PERICENTER":287.1758,"MEAN_ANOMALY":72.1235,"EPHEMERIS_TYPE":0,"CLASSIFICATION_TYPE":"U","NORAD_CAT_ID":27607,"ELEMENT_SET_NO":999,"REV_AT_EPOCH":24439,"BSTAR":0.00019930191,"MEAN_MOTION_DOT":1.532e-5,"MEAN_MOTION_DDOT":0},{"OBJECT_NAME":"CUTE-1 (CO-55)","OBJECT_ID":"2003-031E","EPOCH":"2026-02-01T22:42:08.764992","MEAN_MOTION":14.24233978,"ECCENTRICITY":0.00089666,"INCLINATION":98.6771,"RA_OF_ASC_NODE":43.1922,"ARG_OF_PERICENTER":213.04,"MEAN_ANOMALY":147.0219,"EPHEMERIS_TYPE":0,"CLASSIFICATION_TYPE":"U","NORAD_CAT_ID":27844,"ELEMENT_SET_NO":999,"REV_AT_EPOCH":17242,"BSTAR":0.00017972633,"MEAN_MOTION_DOT":3.71e-6,"MEAN_MOTION_DDOT":0},{"OBJECT_NAME":"CUBESAT XI-IV (CO-57)","OBJECT_ID":"2003-031J","EPOCH":"2026-02-01T22:29:55.668768","MEAN_MOTION":14.23533904,"ECCENTRICITY":0.00086198,"INCLINATION":98.68,"RA_OF_ASC_NODE":43.005,"ARG_OF_PERICENTER":232.6069,"MEAN_ANOMALY":127.4325,"EPHEMERIS_TYPE":0,"CLASSIFICATION_TYPE":"U","NORAD_CAT_ID":27848,"ELEMENT_SET_NO":999,"REV_AT_EPOCH":17213,"BSTAR":0.00015539674,"MEAN_MOTION_DOT":3.1e-6,"MEAN_MOTION_DDOT":0},{"OBJECT_NAME":"MOZHAETS 4 (RS22)","OBJECT_ID":"2003-042A","EPOCH":"2026-02-02T00:18:34.039008","MEAN_MOTION":14.73145734,"ECCENTRICITY":0.00110608,"INCLINATION":98.3389,"RA_OF_ASC_NODE":213.5907,"ARG_OF_PERICENTER":343.1503,"MEAN_ANOMALY":173.7454,"EPHEMERIS_TYPE":0,"CLASSIFICATION_TYPE":"U","NORAD_CAT_ID":27939,"ELEMENT_SET_NO":999,"REV_AT_EPOCH":19564,"BSTAR":0.00023035409,"MEAN_MOTION_DOT":1.432e-5,"MEAN_MOTION_DDOT":0},{"OBJECT_NAME":"CUBESAT XI-V","OBJECT_ID":"2005-043F","EPOCH":"2026-02-01T23:11:38.830560","MEAN_MOTION":14.72150132,"ECCENTRICITY":0.00131523,"INCLINATION":98.2769,"RA_OF_ASC_NODE":185.9339,"ARG_OF_PERICENTER":274.7638,"MEAN_ANOMALY":85.2066,"EPHEMERIS_TYPE":0,"CLASSIFICATION_TYPE":"U","NORAD_CAT_ID":28895,"ELEMENT_SET_NO":999,"REV_AT_EPOCH":8185,"BSTAR":0.00028390647,"MEAN_MOTION_DOT":1.738e-5,"MEAN_MOTION_DDOT":0}]
